[{"OBJECT_NAME":"STARLINK-33962","OBJECT_ID":"2025-098AA","EPOCH":"2026-03-09T21:08:05.537760","MEAN_MOTION":14.98334072,"ECCENTRICITY":0.00029044,"INCLINATION":70.0006,"RA_OF_ASC_NODE":273.8662,"ARG_OF_PERICENTER":266.7176,"MEAN_ANOMALY":93.3651,"EPHEMERIS_TYPE":0,"CLASSIFICATION_TYPE":"U","NORAD_CAT_ID":63950,"ELEMENT_SET_NO":999,"REV_AT_EPOCH":4658,"BSTAR":0.00019731083,"MEAN_MOTION_DOT":2.262e-5,"MEAN_MOTION_DDOT":0},{"OBJECT_NAME":"PEGASUS DEB","OBJECT_ID":"1994-029ABU","EPOCH":"2026-03-08T09:55:10.155936","MEAN_MOTION":14.19535939,"ECCENTRICITY":0.03610507,"INCLINATION":81.685,"RA_OF_ASC_NODE":93.5097,"ARG_OF_PERICENTER":18.2292,"MEAN_ANOMALY":45.8022,"EPHEMERIS_TYPE":0,"CLASSIFICATION_TYPE":"U","NORAD_CAT_ID":24817,"ELEMENT_SET_NO":999,"REV_AT_EPOCH":50638,"BSTAR":0.0011603059,"MEAN_MOTION_DOT":4.738e-5,"MEAN_MOTION_DDOT":0}]
